[{"OBJECT_NAME":"STARLINK-34558","OBJECT_ID":"2025-142AB","EPOCH":"2026-01-25T16:00:03.999744","MEAN_MOTION":14.98365017,"ECCENTRICITY":0.0002983,"INCLINATION":70.0012,"RA_OF_ASC_NODE":62.936,"ARG_OF_PERICENTER":271.7559,"MEAN_ANOMALY":178.3712,"EPHEMERIS_TYPE":0,"CLASSIFICATION_TYPE":"U","NORAD_CAT_ID":64721,"ELEMENT_SET_NO":999,"REV_AT_EPOCH":573,"BSTAR":-0.002384,"MEAN_MOTION_DOT":-0.0002845,"MEAN_MOTION_DDOT":0},{"OBJECT_NAME":"STARLINK-34393","OBJECT_ID":"2025-144A","EPOCH":"2026-01-25T23:03:46.832544","MEAN_MOTION":15.30226064,"ECCENTRICITY":0.00015291,"INCLINATION":53.1624,"RA_OF_ASC_NODE":19.2492,"ARG_OF_PERICENTER":86.2835,"MEAN_ANOMALY":273.8341,"EPHEMERIS_TYPE":0,"CLASSIFICATION_TYPE":"U","NORAD_CAT_ID":64724,"ELEMENT_SET_NO":999,"REV_AT_EPOCH":3318,"BSTAR":0.0012575965,"MEAN_MOTION_DOT":0.00037104,"MEAN_MOTION_DDOT":0},{"OBJECT_NAME":"STARLINK-34562","OBJECT_ID":"2025-144B","EPOCH":"2026-01-25T06:48:27.543168","MEAN_MOTION":15.30200856,"ECCENTRICITY":0.0001088,"INCLINATION":53.1596,"RA_OF_ASC_NODE":22.8435,"ARG_OF_PERICENTER":99.2296,"MEAN_ANOMALY":260.8827,"EPHEMERIS_TYPE":0,"CLASSIFICATION_TYPE":"U","NORAD_CAT_ID":64725,"ELEMENT_SET_NO":999,"REV_AT_EPOCH":3304,"BSTAR":0.00090087,"MEAN_MOTION_DOT":0.00026418,"MEAN_MOTION_DDOT":0},{"OBJECT_NAME":"STARLINK-34557","OBJECT_ID":"2025-144C","EPOCH":"2026-01-25T23:32:39.229440","MEAN_MOTION":15.30226429,"ECCENTRICITY":0.00015232,"INCLINATION":53.1603,"RA_OF_ASC_NODE":19.3731,"ARG_OF_PERICENTER":97.0463,"MEAN_ANOMALY":263.0711,"EPHEMERIS_TYPE":0,"CLASSIFICATION_TYPE":"U","NORAD_CAT_ID":64726,"ELEMENT_SET_NO":999,"REV_AT_EPOCH":3317,"BSTAR":0.002063558,"MEAN_MOTION_DOT":0.00061314,"MEAN_MOTION_DDOT":0},{"OBJECT_NAME":"STARLINK-34242","OBJECT_ID":"2025-144D","EPOCH":"2026-01-25T06:59:05.834400","MEAN_MOTION":15.30201567,"ECCENTRICITY":0.0001125,"INCLINATION":53.16,"RA_OF_ASC_NODE":22.886,"ARG_OF_PERICENTER":87.223,"MEAN_ANOMALY":272.89,"EPHEMERIS_TYPE":0,"CLASSIFICATION_TYPE":"U","NORAD_CAT_ID":64727,"ELEMENT_SET_NO":999,"REV_AT_EPOCH":3306,"BSTAR":0.0011235,"MEAN_MOTION_DOT":0.00033065,"MEAN_MOTION_DDOT":0},{"OBJECT_NAME":"STARLINK-34239","OBJECT_ID":"2025-144E","EPOCH":"2026-01-25T23:22:00.882912","MEAN_MOTION":15.30225707,"ECCENTRICITY":0.00016355,"INCLINATION":53.1614,"RA_OF_ASC_NODE":19.3234,"ARG_OF_PERICENTER":101.8319,"MEAN_ANOMALY":258.2865,"EPHEMERIS_TYPE":0,"CLASSIFICATION_TYPE":"U","NORAD_CAT_ID":64728,"ELEMENT_SET_NO":999,"REV_AT_EPOCH":3317,"BSTAR":0.0012618116,"MEAN_MOTION_DOT":0.00037229,"MEAN_MOTION_DDOT":0},{"OBJECT_NAME":"STARLINK-34588","OBJECT_ID":"2025-144F","EPOCH":"2026-01-25T06:39:20.600064","MEAN_MOTION":15.30186181,"ECCENTRICITY":0.000107,"INCLINATION":53.1607,"RA_OF_ASC_NODE":22.803,"ARG_OF_PERICENTER":84.4552,"MEAN_ANOMALY":275.657,"EPHEMERIS_TYPE":0,"CLASSIFICATION_TYPE":"U","NORAD_CAT_ID":64729,"ELEMENT_SET_NO":999,"REV_AT_EPOCH":3306,"BSTAR":0.0014714,"MEAN_MOTION_DOT":0.00043455,"MEAN_MOTION_DDOT":0},{"OBJECT_NAME":"STARLINK-34606","OBJECT_ID":"2025-144G","EPOCH":"2026-01-25T23:23:32.134272","MEAN_MOTION":15.30215999,"ECCENTRICITY":0.00023431,"INCLINATION":53.1606,"RA_OF_ASC_NODE":19.3327,"ARG_OF_PERICENTER":84.4177,"MEAN_ANOMALY":275.7091,"EPHEMERIS_TYPE":0,"CLASSIFICATION_TYPE":"U","NORAD_CAT_ID":64730,"ELEMENT_SET_NO":999,"REV_AT_EPOCH":3317,"BSTAR":0.0016556589,"MEAN_MOTION_DOT":0.00049027,"MEAN_MOTION_DDOT":0},{"OBJECT_NAME":"STARLINK-34552","OBJECT_ID":"2025-144H","EPOCH":"2026-01-25T05:56:47.618304","MEAN_MOTION":15.30211406,"ECCENTRICITY":0.0001487,"INCLINATION":53.1615,"RA_OF_ASC_NODE":22.6144,"ARG_OF_PERICENTER":85.1413,"MEAN_ANOMALY":274.9757,"EPHEMERIS_TYPE":0,"CLASSIFICATION_TYPE":"U","NORAD_CAT_ID":64731,"ELEMENT_SET_NO":999,"REV_AT_EPOCH":3306,"BSTAR":0.0010447,"MEAN_MOTION_DOT":0.00030722,"MEAN_MOTION_DDOT":0},{"OBJECT_NAME":"STARLINK-34596","OBJECT_ID":"2025-144J","EPOCH":"2026-01-25T06:31:44.548032","MEAN_MOTION":15.30192235,"ECCENTRICITY":0.0001313,"INCLINATION":53.1608,"RA_OF_ASC_NODE":22.7683,"ARG_OF_PERICENTER":92.8567,"MEAN_ANOMALY":267.2584,"EPHEMERIS_TYPE":0,"CLASSIFICATION_TYPE":"U","NORAD_CAT_ID":64732,"ELEMENT_SET_NO":999,"REV_AT_EPOCH":3306,"BSTAR":0.0009824,"MEAN_MOTION_DOT":0.00028843,"MEAN_MOTION_DDOT":0},{"OBJECT_NAME":"STARLINK-34556","OBJECT_ID":"2025-144K","EPOCH":"2026-01-25T22:55:24.953088","MEAN_MOTION":15.30227518,"ECCENTRICITY":8.101e-5,"INCLINATION":53.1627,"RA_OF_ASC_NODE":17.0797,"ARG_OF_PERICENTER":96.6982,"MEAN_ANOMALY":263.4111,"EPHEMERIS_TYPE":0,"CLASSIFICATION_TYPE":"U","NORAD_CAT_ID":64733,"ELEMENT_SET_NO":999,"REV_AT_EPOCH":3320,"BSTAR":0.0014277633,"MEAN_MOTION_DOT":0.00042203,"MEAN_MOTION_DDOT":0},{"OBJECT_NAME":"STARLINK-34591","OBJECT_ID":"2025-144L","EPOCH":"2026-01-25T23:17:27.317184","MEAN_MOTION":15.30221897,"ECCENTRICITY":0.00016333,"INCLINATION":53.1621,"RA_OF_ASC_NODE":19.305,"ARG_OF_PERICENTER":94.8619,"MEAN_ANOMALY":265.2568,"EPHEMERIS_TYPE":0,"CLASSIFICATION_TYPE":"U","NORAD_CAT_ID":64734,"ELEMENT_SET_NO":999,"REV_AT_EPOCH":3315,"BSTAR":0.0013288381,"MEAN_MOTION_DOT":0.00039232,"MEAN_MOTION_DDOT":0},{"OBJECT_NAME":"STARLINK-34587","OBJECT_ID":"2025-144M","EPOCH":"2026-01-25T16:09:44.359776","MEAN_MOTION":15.30223409,"ECCENTRICITY":0.00013339,"INCLINATION":53.16,"RA_OF_ASC_NODE":21.0119,"ARG_OF_PERICENTER":94.1559,"MEAN_ANOMALY":265.9594,"EPHEMERIS_TYPE":0,"CLASSIFICATION_TYPE":"U","NORAD_CAT_ID":64735,"ELEMENT_SET_NO":999,"REV_AT_EPOCH":3307,"BSTAR":0.0014713012,"MEAN_MOTION_DOT":0.00043504,"MEAN_MOTION_DDOT":0},{"OBJECT_NAME":"STARLINK-34130","OBJECT_ID":"2025-144N","EPOCH":"2026-01-25T06:21:06.344064","MEAN_MOTION":15.30196403,"ECCENTRICITY":0.0001529,"INCLINATION":53.16,"RA_OF_ASC_NODE":22.7182,"ARG_OF_PERICENTER":96.7752,"MEAN_ANOMALY":263.3423,"EPHEMERIS_TYPE":0,"CLASSIFICATION_TYPE":"U","NORAD_CAT_ID":64736,"ELEMENT_SET_NO":999,"REV_AT_EPOCH":3306,"BSTAR":0.0014491,"MEAN_MOTION_DOT":0.00042801,"MEAN_MOTION_DDOT":0},{"OBJECT_NAME":"STARLINK-34619","OBJECT_ID":"2025-144P","EPOCH":"2026-01-25T22:45:42.272352","MEAN_MOTION":15.30227295,"ECCENTRICITY":0.00012658,"INCLINATION":53.1603,"RA_OF_ASC_NODE":19.8765,"ARG_OF_PERICENTER":95.1165,"MEAN_ANOMALY":264.9981,"EPHEMERIS_TYPE":0,"CLASSIFICATION_TYPE":"U","NORAD_CAT_ID":64737,"ELEMENT_SET_NO":999,"REV_AT_EPOCH":3316,"BSTAR":0.0015044922,"MEAN_MOTION_DOT":0.00044504,"MEAN_MOTION_DDOT":0},{"OBJECT_NAME":"STARLINK-34597","OBJECT_ID":"2025-144Q","EPOCH":"2026-01-25T16:43:00.752736","MEAN_MOTION":15.30213291,"ECCENTRICITY":0.00017104,"INCLINATION":53.1621,"RA_OF_ASC_NODE":20.4403,"ARG_OF_PERICENTER":87.3379,"MEAN_ANOMALY":272.7818,"EPHEMERIS_TYPE":0,"CLASSIFICATION_TYPE":"U","NORAD_CAT_ID":64738,"ELEMENT_SET_NO":999,"REV_AT_EPOCH":3311,"BSTAR":0.0015815794,"MEAN_MOTION_DOT":0.00046798,"MEAN_MOTION_DDOT":0}]
