STARLINK-34558          
1 64721U 25142AB  26025.66671296 -.00028450  00000+0 -23840-2 0  9991
2 64721  70.0012  62.9360 0002983 271.7559 178.3712 14.98365017  5734
STARLINK-34393          
1 64724U 25144A   26025.96095871  .00037104  00000+0  12576-2 0  9996
2 64724  53.1624  19.2492 0001529  86.2835 273.8341 15.30226064 33184
STARLINK-34562          
1 64725U 25144B   26025.28365212  .00026418  00000+0  90087-3 0  9991
2 64725  53.1596  22.8435 0001088  99.2296 260.8827 15.30200856 33046
STARLINK-34557          
1 64726U 25144C   26025.98100960  .00061314  00000+0  20636-2 0  9992
2 64726  53.1603  19.3731 0001523  97.0463 263.0711 15.30226429 33177
STARLINK-34242          
1 64727U 25144D   26025.29103975  .00033065  00000+0  11235-2 0  9993
2 64727  53.1600  22.8860 0001125  87.2230 272.8900 15.30201567 33060
STARLINK-34239          
1 64728U 25144E   26025.97362133  .00037229  00000+0  12618-2 0  9994
2 64728  53.1614  19.3234 0001635 101.8319 258.2865 15.30225707 33171
STARLINK-34588          
1 64729U 25144F   26025.27732176  .00043455  00000+0  14714-2 0  9993
2 64729  53.1607  22.8030 0001070  84.4552 275.6570 15.30186181 33061
STARLINK-34606          
1 64730U 25144G   26025.97467748  .00049027  00000+0  16557-2 0  9990
2 64730  53.1606  19.3327 0002343  84.4177 275.7091 15.30215999 33170
STARLINK-34552          
1 64731U 25144H   26025.24777336  .00030722  00000+0  10447-2 0  9992
2 64731  53.1615  22.6144 0001487  85.1413 274.9757 15.30211406 33061
STARLINK-34596          
1 64732U 25144J   26025.27204338  .00028843  00000+0  98240-3 0  9992
2 64732  53.1608  22.7683 0001313  92.8567 267.2584 15.30192235 33067
STARLINK-34556          
1 64733U 25144K   26025.95514992  .00042203  00000+0  14278-2 0  9992
2 64733  53.1627  17.0797 0000810  96.6982 263.4111 15.30227518 33209
STARLINK-34591          
1 64734U 25144L   26025.97045506  .00039232  00000+0  13288-2 0  9993
2 64734  53.1621  19.3050 0001633  94.8619 265.2568 15.30221897 33156
STARLINK-34587          
1 64735U 25144M   26025.67343009  .00043504  00000+0  14713-2 0  9991
2 64735  53.1600  21.0119 0001333  94.1559 265.9594 15.30223409 33071
STARLINK-34130          
1 64736U 25144N   26025.26465676  .00042801  00000+0  14491-2 0  9994
2 64736  53.1600  22.7182 0001529  96.7752 263.3423 15.30196403 33065
STARLINK-34619          
1 64737U 25144P   26025.94840593  .00044504  00000+0  15045-2 0  9993
2 64737  53.1603  19.8765 0001265  95.1165 264.9981 15.30227295 33162
STARLINK-34597          
1 64738U 25144Q   26025.69653649  .00046798  00000+0  15816-2 0  9993
2 64738  53.1621  20.4403 0001710  87.3379 272.7818 15.30213291 33117
